NORAD_CAT_ID,OBJECT_NAME,OBJECT_TYPE,EPOCH,MEAN_MOTION,ECCENTRICITY,INCLINATION,RA_OF_ASC_NODE,ARG_OF_PERICENTER,MEAN_ANOMALY,BSTAR,MEAN_MOTION_DOT,MEAN_MOTION_DDOT,TLE_LINE0,TLE_LINE1,TLE_LINE2,SEMIMAJOR_AXIS,PERIOD,APOGEE,PERIGEE,DECAYED
51808.0,STARLINK-3609,PAYLOAD,2022-12-26 21:13:58,15.088294,0.0002736,53.2147,186.0916,40.086,320.0333,0.00012722,1.736e-05,0.0,0 STARLINK-3609,1 51808U 22017AS  22360.88470337  .00001736  00000-0  12722-3 0  9991,2 51808  53.2147 186.0916 0002736  40.0860 320.0333 15.08829400 47612,6917.913000000001,95.438,541.6709999999998,537.885,0.0
51808.0,STARLINK-3609,PAYLOAD,2022-12-27 05:10:53,15.08837473,0.0002775,53.2147,184.6048,39.7981,320.3214,2.7044e-05,1.42e-06,0.0,0 STARLINK-3609,1 51808U 22017AS  22361.21590119  .00000142  00000-0  27044-4 0  9994,2 51808  53.2147 184.6048 0002775  39.7981 320.3214 15.08837473 47568,6917.888000000001,95.438,541.673,537.8330000000002,0.0
51808.0,STARLINK-3609,PAYLOAD,2022-12-27 17:53:58,15.08835859,0.0002776,53.2147,182.2258,41.0271,319.093,0.00013565,1.871e-05,0.0,0 STARLINK-3609,1 51808U 22017AS  22361.74582045  .00001871  00000-0  13565-3 0  9993,2 51808  53.2147 182.2258 0002776  41.0271 319.0930 15.08835859 47649,6917.893,95.438,541.678,537.8380000000002,0.0
51808.0,STARLINK-3609,PAYLOAD,2022-12-28 14:33:59,15.08843117,0.0002858,53.2148,178.3596,42.3524,317.7688,0.00015493,2.178e-05,0.0,0 STARLINK-3609,1 51808U 22017AS  22362.60693677  .00002178  00000-0  15493-3 0  9996,2 51808  53.2148 178.3596 0002858  42.3524 317.7688 15.08843117 47873,6917.871,95.437,541.7130000000002,537.759,0.0
51808.0,STARLINK-3609,PAYLOAD,2022-12-29 11:14:00,15.08843278,0.0002898999999999,53.2141,174.4957,43.4712,316.6508,7.8743e-05,9.65e-06,0.0,0 STARLINK-3609,1 51808U 22017AS  22363.46805822  .00000965  00000-0  78743-4 0  9998,2 51808  53.2141 174.4957 0002899  43.4712 316.6508 15.08843278 47901,6917.87,95.437,541.741,537.73,0.0
51808.0,STARLINK-3609,PAYLOAD,2022-12-29 14:24:46,15.08837583,0.0002918,53.2145,173.8991,44.6787,315.444,3.3527e-05,2.45e-06,0.0,0 STARLINK-3609,1 51808U 22017AS  22363.60054309  .00000245  00000-0  33527-4 0  9992,2 51808  53.2145 173.8991 0002918  44.6787 315.4440 15.08837583 48021,6917.888000000001,95.438,541.771,537.734,0.0
51808.0,STARLINK-3609,PAYLOAD,2022-12-30 11:04:46,15.08848895,0.0002892,53.2144,170.0332,45.5936,314.5293,4.506600000000001e-05,4.29e-06,0.0,0 STARLINK-3609,1 51808U 22017AS  22364.46165393  .00000429  00000-0  45066-4 0  9998,2 51808  53.2144 170.0332 0002892  45.5936 314.5293 15.08848895 48153,6917.853,95.437,541.719,537.7180000000002,0.0
51808.0,STARLINK-3609,PAYLOAD,2022-12-31 04:34:00,15.08857261,0.0002889,53.2146,166.7622,46.4772,313.646,0.0001291,1.768e-05,0.0,0 STARLINK-3609,1 51808U 22017AS  22365.19028175  .00001768  00000-0  12910-3 0  9993,2 51808  53.2146 166.7622 0002889  46.4772 313.6460 15.08857261 48268,6917.828,95.436,541.691,537.694,0.0
51808.0,STARLINK-3609,PAYLOAD,2022-12-31 17:17:06,15.08843331,0.0002875,53.215,164.3831,48.2578,311.866,0.00012685,1.731e-05,0.0,0 STARLINK-3609,1 51808U 22017AS  22365.72020933  .00001731  00000-0  12685-3 0  9995,2 51808  53.2150 164.3831 0002875  48.2578 311.8660 15.08843331 48241,6917.87,95.437,541.724,537.746,0.0
51808.0,STARLINK-3609,PAYLOAD,2023-01-01 10:46:20,15.08842957,0.0002865,53.2155,161.1117,50.5098,309.6147,3.9268e-05,3.36e-06,0.0,0 STARLINK-3609,1 51808U 22017AS  23001.44884917  .00000336  00000-0  39268-4 0  9999,2 51808  53.2155 161.1117 0002865  50.5098 309.6147 15.08842957 48350,6917.871,95.437,541.7180000000002,537.754,0.0
51808.0,STARLINK-3609,PAYLOAD,2023-01-01 17:07:53,15.088385999999998,0.0002877,53.2159,159.922,52.0255,308.0997,7.4804e-05,9.02e-06,0.0,0 STARLINK-3609,1 51808U 22017AS  23001.71381108  .00000902  00000-0  74804-4 0  9997,2 51808  53.2159 159.9220 0002877  52.0255 308.0997 15.08838600 48490,6917.885,95.438,541.74,537.759,0.0
51808.0,STARLINK-3609,PAYLOAD,2023-01-02 10:37:08,15.0883198,0.0002788,53.2166,156.6532,43.9446,316.1768,-2.3943e-05,-6.7e-06,0.0,0 STARLINK-3609,1 51808U 22017AS  23002.44245731 -.00000670  00000-0 -23943-4 0  9991,2 51808  53.2166 156.6532 0002788  43.9446 316.1768 15.08831980 48603,6917.905,95.438,541.6990000000002,537.841,0.0
51808.0,STARLINK-3609,PAYLOAD,2023-01-02 16:58:40,15.08835445,0.0002801,53.2169,155.4642,44.635,315.4868,5.9771000000000025e-06,-1.93e-06,0.0,0 STARLINK-3609,1 51808U 22017AS  23002.70741463 -.00000193  00000-0  59771-5 0  9991,2 51808  53.2169 155.4642 0002801  44.6350 315.4868 15.08835445 48549,6917.894,95.438,541.697,537.822,0.0
51808.0,STARLINK-3609,PAYLOAD,2023-01-03 02:30:59,15.08839627,0.0002853,53.2165,153.6799,45.8778,314.2448,-1.2476e-06,-3.08e-06,0.0,0 STARLINK-3609,1 51808U 22017AS  23003.10485273 -.00000308  00000-0 -12476-5 0  9990,2 51808  53.2165 153.6799 0002853  45.8778 314.2448 15.08839627 48707,6917.882,95.438,541.72,537.773,0.0
51808.0,STARLINK-3609,PAYLOAD,2023-01-03 08:52:31,15.08839161,0.0002796,53.2165,152.4902,44.4546,315.6670000000001,7.414e-05,8.92e-06,0.0,0 STARLINK-3609,1 51808U 22017AS  23003.36981156  .00000892  00000-0  74140-4 0  9990,2 51808  53.2165 152.4902 0002796  44.4546 315.6670 15.08839161 48642,6917.8830000000025,95.438,541.682,537.814,0.0
51808.0,STARLINK-3609,PAYLOAD,2023-01-03 16:49:27,15.08832626,0.0002812,53.2162,151.0029,44.8341,315.2878,6.6685e-05,7.73e-06,0.0,0 STARLINK-3609,1 51808U 22017AS  23003.70101697  .00000773  00000-0  66685-4 0  9995,2 51808  53.2162 151.0029 0002812  44.8341 315.2878 15.08832626 48791,6917.903,95.438,541.7130000000002,537.823,0.0
51808.0,STARLINK-3609,PAYLOAD,2023-01-04 08:43:19,15.08835219,0.0002856999999999,53.2154,148.0282,43.8139,316.3079,3.3639e-05,2.47e-06,0.0,0 STARLINK-3609,1 51808U 22017AS  23004.36342059  .00000247  00000-0  33639-4 0  9996,2 51808  53.2154 148.0282 0002857  43.8139 316.3079 15.08835219 48798,6917.895,95.438,541.736,537.784,0.0
51808.0,STARLINK-3609,PAYLOAD,2023-01-04 16:40:14,15.08839924,0.0002877,53.216,146.5419,45.6451,314.4776,7.155e-05,8.5e-06,0.0,0 STARLINK-3609,1 51808U 22017AS  23004.69461693  .00000850  00000-0  71550-4 0  9992,2 51808  53.2160 146.5419 0002877  45.6451 314.4776 15.08839924 48845,6917.880999999999,95.438,541.736,537.755,0.0
51808.0,STARLINK-3609,PAYLOAD,2023-01-05 02:12:32,15.08849715,0.0002833999999999,53.216,144.7576,43.5766,316.545,0.00014761,2.062e-05,0.0,0 STARLINK-3609,1 51808U 22017AS  23005.09204784  .00002062  00000-0  14761-3 0  9990,2 51808  53.2160 144.7576 0002834  43.5766 316.5450 15.08849715 49008,6917.851,95.437,541.6759999999998,537.755,0.0
51808.0,STARLINK-3609,PAYLOAD,2023-01-05 10:09:28,15.0884986,0.0002753,53.2163,143.2705,43.2552,316.8656,0.00017449,2.49e-05,0.0,0 STARLINK-3609,1 51808U 22017AS  23005.42324586  .00002490  00000-0  17449-3 0  9991,2 51808  53.2163 143.2705 0002753  43.2552 316.8656 15.08849860 48954,6917.85,95.437,541.62,537.811,0.0
51808.0,STARLINK-3609,PAYLOAD,2023-01-05 18:06:24,15.08847817,0.0002698,53.2149,141.7823,31.6036,328.5118,0.00012902,1.766e-05,0.0,0 STARLINK-3609,1 51808U 22017AS  23005.75444677  .00001766  00000-0  12902-3 0  9995,2 51808  53.2149 141.7823 0002698  31.6036 328.5118 15.08847817 49008,6917.856,95.437,541.5880000000002,537.855,0.0
51808.0,STARLINK-3609,PAYLOAD,2023-01-06 10:00:16,15.08838081,0.0002906,53.2154,138.8098,44.0699,316.0524,3.2107e-05,2.22e-06,0.0,0 STARLINK-3609,1 51808U 22017AS  23006.41685635  .00000222  00000-0  32107-4 0  9996,2 51808  53.2154 138.8098 0002906  44.0699 316.0524 15.08838081 49208,6917.886,95.438,541.762,537.741,0.0
51808.0,STARLINK-3609,PAYLOAD,2023-01-07 14:37:12,15.08843196,0.0002505,53.2155,133.4564,37.5961,322.5206,-1.0795e-05,-4.6e-06,0.0,0 STARLINK-3609,1 51808U 22017AS  23007.60917317 -.00000460  00000-0 -10795-4 0  9998,2 51808  53.2155 133.4564 0002505  37.5961 322.5206 15.08843196 49383,6917.871,95.437,541.469,538.003,0.0
51808.0,STARLINK-3609,PAYLOAD,2023-01-08 01:44:55,15.08832531,0.0002506,53.2162,131.3745,37.7847,322.3321,-7.835199999999999e-06,-4.13e-06,0.0,0 STARLINK-3609,1 51808U 22017AS  23008.07286113 -.00000413  00000-0 -78352-5 0  9995,2 51808  53.2162 131.3745 0002506  37.7847 322.3321 15.08832531 49450,6917.903,95.438,541.502,538.035,0.0
51808.0,STARLINK-3609,PAYLOAD,2023-01-08 14:28:00,15.088329000000002,0.0002438,53.2161,128.9969,28.9893,331.1234,0.00012678,1.73e-05,0.0,0 STARLINK-3609,1 51808U 22017AS  23008.60277933  .00001730  00000-0  12678-3 0  9992,2 51808  53.2161 128.9969 0002438  28.9893 331.1234 15.08832900 49435,6917.901999999999,95.438,541.4540000000002,538.081,0.0
51808.0,STARLINK-3609,PAYLOAD,2023-01-09 14:18:46,15.08846277,0.0002774,53.217,124.5373,41.3902,318.73,0.00013763,1.903e-05,0.0,0 STARLINK-3609,1 51808U 22017AS  23009.59637031  .00001903  00000-0  13763-3 0  9998,2 51808  53.2170 124.5373 0002774  41.3902 318.7300 15.08846277 49683,6917.861,95.437,541.645,537.807,0.0
51808.0,STARLINK-3609,PAYLOAD,2023-01-09 17:29:32,15.08848185,0.0002482,53.2169,123.9419,28.9769,331.1361,0.00015705,2.213e-05,0.0,0 STARLINK-3609,1 51808U 22017AS  23009.72884931  .00002213  00000-0  15705-3 0  9999,2 51808  53.2169 123.9419 0002482  28.9769 331.1361 15.08848185 49601,6917.855,95.437,541.437,538.003,0.0
51808.0,STARLINK-3609,PAYLOAD,2023-01-10 10:58:48,15.08835875,0.0002531,53.2159,120.6702,30.0853,330.0284,-1.8032e-05,-5.75e-06,0.0,0 STARLINK-3609,1 51808U 22017AS  23010.45750176 -.00000575  00000-0 -18032-4 0  9992,2 51808  53.2159 120.6702 0002531  30.0853 330.0284 15.08835875 49819,6917.893,95.438,541.509,538.007,0.0
51808.0,STARLINK-3609,PAYLOAD,2023-01-10 14:09:34,15.08839296,0.0002622,53.2157,120.075,28.432,331.6815,2.8612e-05,1.67e-06,0.0,0 STARLINK-3609,1 51808U 22017AS  23010.58997826  .00000167  00000-0  28612-4 0  9991,2 51808  53.2157 120.0750 0002622  28.4320 331.6815 15.08839296 49734,6917.883000000002,95.438,541.561,537.934,0.0
